{
  "type": "FeatureCollection",
  "features": [
    {
      "type": "Feature",
      "properties": {
        "norad_id": 66594,
        "name": "STARLINK-36032",
        "group": "last-30-days",
        "lat": -28.278022712107685,
        "lon": 140.5795261411266,
        "alt_km": 416.235349858287,
        "timestamp": "2025-12-15T14:57:56.620952+00:00",
        "meta_object_name": "STARLINK-36032",
        "meta_object_id": "2025-270G",
        "meta_epoch": "2025-12-14T22:09:00.753696",
        "meta_mean_motion": 15.5060905,
        "meta_eccentricity": 0.00017763,
        "meta_inclination": 42.9989,
        "meta_ra_of_asc_node": 179.9413,
        "meta_arg_of_pericenter": 277.1804,
        "meta_mean_anomaly": 82.8854,
        "meta_ephemeris_type": 0,
        "meta_classification_type": "U",
        "meta_norad_cat_id": 66594,
        "meta_element_set_no": 999,
        "meta_rev_at_epoch": 449,
        "meta_bstar": 0.0012859855,
        "meta_mean_motion_dot": 0.00075918,
        "meta_mean_motion_ddot": 0,
        "tle_line1": "1 66594U 25270G   25348.92292539  .00075918  00000+0  12860-2 0  9997",
        "tle_line2": "2 66594  42.9989 179.9413 0001776 277.1804  82.8854 15.50609050  4490"
      },
      "geometry": {
        "type": "Point",
        "coordinates": [
          140.5795261411266,
          -28.278022712107685
        ]
      }
    },
    {
      "type": "Feature",
      "properties": {
        "norad_id": 66595,
        "name": "STARLINK-35711",
        "group": "last-30-days",
        "lat": -27.27007494848333,
        "lon": 142.25054171851636,
        "alt_km": 416.5842551501655,
        "timestamp": "2025-12-15T14:57:56.620961+00:00",
        "meta_object_name": "STARLINK-35711",
        "meta_object_id": "2025-270H",
        "meta_epoch": "2025-12-14T22:08:31.127136",
        "meta_mean_motion": 15.50591358,
        "meta_eccentricity": 0.00017143,
        "meta_inclination": 42.9991,
        "meta_ra_of_asc_node": 179.9385,
        "meta_arg_of_pericenter": 267.3953,
        "meta_mean_anomaly": 92.6711,
        "meta_ephemeris_type": 0,
        "meta_classification_type": "U",
        "meta_norad_cat_id": 66595,
        "meta_element_set_no": 999,
        "meta_rev_at_epoch": 479,
        "meta_bstar": 0.00051398093,
        "meta_mean_motion_dot": 0.0002994,
        "meta_mean_motion_ddot": 0,
        "tle_line1": "1 66595U 25270H   25348.92258249  .00029940  00000+0  51398-3 0  9992",
        "tle_line2": "2 66595  42.9991 179.9385 0001714 267.3953  92.6711 15.50591358  4795"
      },
      "geometry": {
        "type": "Point",
        "coordinates": [
          142.25054171851636,
          -27.27007494848333
        ]
      }
    },
    {
      "type": "Feature",
      "properties": {
        "norad_id": 66596,
        "name": "STARLINK-35811",
        "group": "last-30-days",
        "lat": -20.790295297805066,
        "lon": 20.142188658547422,
        "alt_km": 445.4870231498926,
        "timestamp": "2025-12-15T14:57:56.620970+00:00",
        "meta_object_name": "STARLINK-35811",
        "meta_object_id": "2025-270J",
        "meta_epoch": "2025-12-14T20:00:06.000192",
        "meta_mean_motion": 15.40675484,
        "meta_eccentricity": 0.00021199,
        "meta_inclination": 42.9995,
        "meta_ra_of_asc_node": 180.6524,
        "meta_arg_of_pericenter": 274.3923,
        "meta_mean_anomaly": 229.046,
        "meta_ephemeris_type": 0,
        "meta_classification_type": "U",
        "meta_norad_cat_id": 66596,
        "meta_element_set_no": 999,
        "meta_rev_at_epoch": 484,
        "meta_bstar": 0.00060329157,
        "meta_mean_motion_dot": 0.0002496,
        "meta_mean_motion_ddot": 0,
        "tle_line1": "1 66596U 25270J   25348.83340278  .00024960  00000+0  60329-3 0  9998",
        "tle_line2": "2 66596  42.9995 180.6524 0002119 274.3923 229.0460 15.40675484  4844"
      },
      "geometry": {
        "type": "Point",
        "coordinates": [
          20.142188658547422,
          -20.790295297805066
        ]
      }
    },
    {
      "type": "Feature",
      "properties": {
        "norad_id": 66597,
        "name": "STARLINK-35820",
        "group": "last-30-days",
        "lat": -42.255781871976666,
        "lon": 73.13612269245189,
        "alt_km": 448.08108114462084,
        "timestamp": "2025-12-15T14:57:56.620979+00:00",
        "meta_object_name": "STARLINK-35820",
        "meta_object_id": "2025-270K",
        "meta_epoch": "2025-12-14T20:00:06.000192",
        "meta_mean_motion": 15.41099491,
        "meta_eccentricity": 0.00018297,
        "meta_inclination": 42.9993,
        "meta_ra_of_asc_node": 180.5325,
        "meta_arg_of_pericenter": 276.4948,
        "meta_mean_anomaly": 276.5326,
        "meta_ephemeris_type": 0,
        "meta_classification_type": "U",
        "meta_norad_cat_id": 66597,
        "meta_element_set_no": 999,
        "meta_rev_at_epoch": 484,
        "meta_bstar": -0.01635123,
        "meta_mean_motion_dot": -0.00645055,
        "meta_mean_motion_ddot": 0,
        "tle_line1": "1 66597U 25270K   25348.83340278 -.00645055  00000+0 -16351-1 0  9999",
        "tle_line2": "2 66597  42.9993 180.5325 0001829 276.4948 276.5326 15.41099491  4845"
      },
      "geometry": {
        "type": "Point",
        "coordinates": [
          73.13612269245189,
          -42.255781871976666
        ]
      }
    },
    {
      "type": "Feature",
      "properties": {
        "norad_id": 66598,
        "name": "STARLINK-35981",
        "group": "last-30-days",
        "lat": -23.90622734297593,
        "lon": 147.41665864267267,
        "alt_km": 416.33142947997567,
        "timestamp": "2025-12-15T14:57:56.620989+00:00",
        "meta_object_name": "STARLINK-35981",
        "meta_object_id": "2025-270L",
        "meta_epoch": "2025-12-14T22:07:02.222400",
        "meta_mean_motion": 15.50589571,
        "meta_eccentricity": 0.00015998,
        "meta_inclination": 42.9987,
        "meta_ra_of_asc_node": 179.9298,
        "meta_arg_of_pericenter": 275.416,
        "meta_mean_anomaly": 84.6518,
        "meta_ephemeris_type": 0,
        "meta_classification_type": "U",
        "meta_norad_cat_id": 66598,
        "meta_element_set_no": 999,
        "meta_rev_at_epoch": 452,
        "meta_bstar": 0.00066047405,
        "meta_mean_motion_dot": 0.00038611,
        "meta_mean_motion_ddot": 0,
        "tle_line1": "1 66598U 25270L   25348.92155350  .00038611  00000+0  66047-3 0  9996",
        "tle_line2": "2 66598  42.9987 179.9298 0001599 275.4160  84.6518 15.50589571  4528"
      },
      "geometry": {
        "type": "Point",
        "coordinates": [
          147.41665864267267,
          -23.90622734297593
        ]
      }
    },
    {
      "type": "Feature",
      "properties": {
        "norad_id": 66599,
        "name": "STARLINK-35930",
        "group": "last-30-days",
        "lat": -22.769769526152803,
        "lon": 149.04618009296894,
        "alt_km": 416.8472763151958,
        "timestamp": "2025-12-15T14:57:56.621000+00:00",
        "meta_object_name": "STARLINK-35930",
        "meta_object_id": "2025-270M",
        "meta_epoch": "2025-12-14T22:06:32.703840",
        "meta_mean_motion": 15.50583822,
        "meta_eccentricity": 7.419e-05,
        "meta_inclination": 42.9991,
        "meta_ra_of_asc_node": 179.9284,
        "meta_arg_of_pericenter": 258.8501,
        "meta_mean_anomaly": 101.2276,
        "meta_ephemeris_type": 0,
        "meta_classification_type": "U",
        "meta_norad_cat_id": 66599,
        "meta_element_set_no": 999,
        "meta_rev_at_epoch": 468,
        "meta_bstar": 0.00050001991,
        "meta_mean_motion_dot": 0.00029106,
        "meta_mean_motion_ddot": 0,
        "tle_line1": "1 66599U 25270M   25348.92121185  .00029106  00000+0  50002-3 0  9999",
        "tle_line2": "2 66599  42.9991 179.9284 0000741 258.8501 101.2276 15.50583822  4688"
      },
      "geometry": {
        "type": "Point",
        "coordinates": [
          149.04618009296894,
          -22.769769526152803
        ]
      }
    },
    {
      "type": "Feature",
      "properties": {
        "norad_id": 66600,
        "name": "STARLINK-35980",
        "group": "last-30-days",
        "lat": -21.542474999132363,
        "lon": 150.74703823798865,
        "alt_km": 415.38838467398455,
        "timestamp": "2025-12-15T14:57:56.621009+00:00",
        "meta_object_name": "STARLINK-35980",
        "meta_object_id": "2025-270N",
        "meta_epoch": "2025-12-14T22:06:02.721312",
        "meta_mean_motion": 15.50596456,
        "meta_eccentricity": 0.00029209,
        "meta_inclination": 42.9988,
        "meta_ra_of_asc_node": 179.9244,
        "meta_arg_of_pericenter": 280.5185,
        "meta_mean_anomaly": 79.5346,
        "meta_ephemeris_type": 0,
        "meta_classification_type": "U",
        "meta_norad_cat_id": 66600,
        "meta_element_set_no": 999,
        "meta_rev_at_epoch": 458,
        "meta_bstar": 0.00089161394,
        "meta_mean_motion_dot": 0.00052353,
        "meta_mean_motion_ddot": 0,
        "tle_line1": "1 66600U 25270N   25348.92086483  .00052353  00000+0  89161-3 0  9991",
        "tle_line2": "2 66600  42.9988 179.9244 0002920 280.5185  79.5346 15.50596456  4585"
      },
      "geometry": {
        "type": "Point",
        "coordinates": [
          150.74703823798865,
          -21.542474999132363
        ]
      }
    }
  ]
}